[{"OBJECT_NAME":"STARLINK-36448","OBJECT_ID":"2026-003W","EPOCH":"2026-03-09T11:55:13.353312","MEAN_MOTION":15.27602724,"ECCENTRICITY":0.00011675,"INCLINATION":42.9951,"RA_OF_ASC_NODE":228.2137,"ARG_OF_PERICENTER":207.6464,"MEAN_ANOMALY":152.4326,"EPHEMERIS_TYPE":0,"CLASSIFICATION_TYPE":"U","NORAD_CAT_ID":67354,"ELEMENT_SET_NO":999,"REV_AT_EPOCH":879,"BSTAR":0.0012194421,"MEAN_MOTION_DOT":0.0003347,"MEAN_MOTION_DDOT":0},{"OBJECT_NAME":"OBJECT A","OBJECT_ID":"2025-234A","EPOCH":"2026-03-09T23:03:34.210368","MEAN_MOTION":15.32505956,"ECCENTRICITY":0.00130678,"INCLINATION":97.4388,"RA_OF_ASC_NODE":139.352,"ARG_OF_PERICENTER":148.634,"MEAN_ANOMALY":211.5684,"EPHEMERIS_TYPE":0,"CLASSIFICATION_TYPE":"U","NORAD_CAT_ID":66053,"ELEMENT_SET_NO":999,"REV_AT_EPOCH":2164,"BSTAR":0.0014840662,"MEAN_MOTION_DOT":0.00046856,"MEAN_MOTION_DDOT":0}]
